ONEWEB-0243             
1 48774U 21045H   25333.64260693 -.00000003  00000+0 -43187-4 0  9995
2 48774  87.8984 299.0402 0002268  85.4375 274.7015 13.15547431218126
ONEWEB-0222             
1 48775U 21045J   25333.85414850 -.00000024  00000+0 -97090-4 0  9990
2 48775  87.8988 298.9510 0002032  81.4850 278.6510 13.15549349218192
ONEWEB-0244             
1 48776U 21045K   25333.65212020  .00000081  00000+0  18171-3 0  9997
2 48776  87.8995 298.9776 0002010  82.8299 277.3059 13.15548451218730
ONEWEB-0247             
1 48777U 21045L   25333.64894823  .00000148  00000+0  35871-3 0  9994
2 48777  87.8976 299.0371 0002834  84.7796 275.3658 13.15547817218176
ONEWEB-0245             
1 48778U 21045M   25333.18784932  .00000034  00000+0  56420-4 0  9991
2 48778  87.8979 299.0935 0001958  76.1111 284.0237 13.15547893218082
ONEWEB-0229             
1 48779U 21045N   25333.63943590  .00000020  00000+0  19654-4 0  9992
2 48779  87.8977 299.0020 0002018  85.6090 274.5271 13.15548146218179
ONEWEB-0228             
1 48780U 21045P   25333.82497347  .00000161  00000+0  39482-3 0  9995
2 48780  87.8984 298.9481 0001988  81.8513 278.2843 13.15547167218113
ONEWEB-0232             
1 48781U 21045Q   25333.26707937  .00000039  00000+0  68458-4 0  9993
2 48781  87.8995 299.0501 0001884  83.9936 276.1409 13.15547430218363
ONEWEB-0231             
1 48782U 21045R   25333.85335573 -.00000050  00000+0 -16743-3 0  9996
2 48782  87.8974 298.9786 0002160  83.0036 277.1340 13.15547994218139
ONEWEB-0234             
1 48783U 21045S   25333.81518355  .00000124  00000+0  29462-3 0  9996
2 48783  87.8979 298.9589 0001421  56.5763 303.5503 13.15547456218269
ONEWEB-0238             
1 48784U 21045T   25333.81545575  .00000138  00000+0  33196-3 0  9995
2 48784  87.8978 298.9529 0001630  74.3882 285.7428 13.15549543218160
ONEWEB-0240             
1 48785U 21045U   25333.83672126  .00000118  00000+0  27838-3 0  9995
2 48785  87.8998 298.9423 0002109  74.1785 285.9577 13.15549826218192
ONEWEB-0246             
1 48786U 21045V   25333.83117131  .00000200  00000+0  49755-3 0  9990
2 48786  87.8988 298.9543 0002018  85.9838 274.1523 13.15549502218061
ONEWEB-0210             
1 48787U 21045W   25333.27341875  .00000155  00000+0  37760-3 0  9995
2 48787  87.8986 299.0641 0002488  89.8392 270.3024 13.15548121218037
ONEWEB-0214             
1 48788U 21045X   25333.81451292  .00000143  00000+0  34578-3 0  9992
2 48788  87.8996 298.9462 0002190  91.8068 268.3314 13.15550455218077
ONEWEB-0221             
1 48789U 21045Y   25333.82166306  .00000127  00000+0  30206-3 0  9999
2 48789  87.8984 298.9614 0002079  80.0643 280.0722 13.15547538218161
ONEWEB-0213             
1 48790U 21045Z   25333.81057494  .00000139  00000+0  33568-3 0  9994
2 48790  87.8976 298.9719 0002163  83.4555 276.6821 13.15549837218225
