[{"OBJECT_NAME":"ONEWEB-0243","OBJECT_ID":"2021-045H","EPOCH":"2025-11-29T15:25:21.238752","MEAN_MOTION":13.15547431,"ECCENTRICITY":0.0002268,"INCLINATION":87.8984,"RA_OF_ASC_NODE":299.0402,"ARG_OF_PERICENTER":85.4375,"MEAN_ANOMALY":274.7015,"EPHEMERIS_TYPE":0,"CLASSIFICATION_TYPE":"U","NORAD_CAT_ID":48774,"ELEMENT_SET_NO":999,"REV_AT_EPOCH":21812,"BSTAR":-4.3187e-5,"MEAN_MOTION_DOT":-3.0e-8,"MEAN_MOTION_DDOT":0},{"OBJECT_NAME":"ONEWEB-0222","OBJECT_ID":"2021-045J","EPOCH":"2025-11-29T20:29:58.430400","MEAN_MOTION":13.15549349,"ECCENTRICITY":0.0002032,"INCLINATION":87.8988,"RA_OF_ASC_NODE":298.951,"ARG_OF_PERICENTER":81.485,"MEAN_ANOMALY":278.651,"EPHEMERIS_TYPE":0,"CLASSIFICATION_TYPE":"U","NORAD_CAT_ID":48775,"ELEMENT_SET_NO":999,"REV_AT_EPOCH":21819,"BSTAR":-9.709e-5,"MEAN_MOTION_DOT":-2.4e-7,"MEAN_MOTION_DDOT":0},{"OBJECT_NAME":"ONEWEB-0244","OBJECT_ID":"2021-045K","EPOCH":"2025-11-29T15:39:03.185280","MEAN_MOTION":13.15548451,"ECCENTRICITY":0.000201,"INCLINATION":87.8995,"RA_OF_ASC_NODE":298.9776,"ARG_OF_PERICENTER":82.8299,"MEAN_ANOMALY":277.3059,"EPHEMERIS_TYPE":0,"CLASSIFICATION_TYPE":"U","NORAD_CAT_ID":48776,"ELEMENT_SET_NO":999,"REV_AT_EPOCH":21873,"BSTAR":0.00018171,"MEAN_MOTION_DOT":8.1e-7,"MEAN_MOTION_DDOT":0},{"OBJECT_NAME":"ONEWEB-0247","OBJECT_ID":"2021-045L","EPOCH":"2025-11-29T15:34:29.127072","MEAN_MOTION":13.15547817,"ECCENTRICITY":0.0002834,"INCLINATION":87.8976,"RA_OF_ASC_NODE":299.0371,"ARG_OF_PERICENTER":84.7796,"MEAN_ANOMALY":275.3658,"EPHEMERIS_TYPE":0,"CLASSIFICATION_TYPE":"U","NORAD_CAT_ID":48777,"ELEMENT_SET_NO":999,"REV_AT_EPOCH":21817,"BSTAR":0.00035871,"MEAN_MOTION_DOT":1.48e-6,"MEAN_MOTION_DDOT":0},{"OBJECT_NAME":"ONEWEB-0245","OBJECT_ID":"2021-045M","EPOCH":"2025-11-29T04:30:30.181248","MEAN_MOTION":13.15547893,"ECCENTRICITY":0.00019584,"INCLINATION":87.8979,"RA_OF_ASC_NODE":299.0935,"ARG_OF_PERICENTER":76.1111,"MEAN_ANOMALY":284.0237,"EPHEMERIS_TYPE":0,"CLASSIFICATION_TYPE":"U","NORAD_CAT_ID":48778,"ELEMENT_SET_NO":999,"REV_AT_EPOCH":21808,"BSTAR":5.6420003e-5,"MEAN_MOTION_DOT":3.4e-7,"MEAN_MOTION_DDOT":0},{"OBJECT_NAME":"ONEWEB-0229","OBJECT_ID":"2021-045N","EPOCH":"2025-11-29T15:20:47.261760","MEAN_MOTION":13.15548146,"ECCENTRICITY":0.0002018,"INCLINATION":87.8977,"RA_OF_ASC_NODE":299.002,"ARG_OF_PERICENTER":85.609,"MEAN_ANOMALY":274.5271,"EPHEMERIS_TYPE":0,"CLASSIFICATION_TYPE":"U","NORAD_CAT_ID":48779,"ELEMENT_SET_NO":999,"REV_AT_EPOCH":21817,"BSTAR":1.9654e-5,"MEAN_MOTION_DOT":2.0e-7,"MEAN_MOTION_DDOT":0},{"OBJECT_NAME":"ONEWEB-0228","OBJECT_ID":"2021-045P","EPOCH":"2025-11-29T19:47:57.707808","MEAN_MOTION":13.15547167,"ECCENTRICITY":0.0001988,"INCLINATION":87.8984,"RA_OF_ASC_NODE":298.9481,"ARG_OF_PERICENTER":81.8513,"MEAN_ANOMALY":278.2843,"EPHEMERIS_TYPE":0,"CLASSIFICATION_TYPE":"U","NORAD_CAT_ID":48780,"ELEMENT_SET_NO":999,"REV_AT_EPOCH":21811,"BSTAR":0.00039482,"MEAN_MOTION_DOT":1.61e-6,"MEAN_MOTION_DDOT":0},{"OBJECT_NAME":"ONEWEB-0232","OBJECT_ID":"2021-045Q","EPOCH":"2025-11-29T06:24:35.657568","MEAN_MOTION":13.1554743,"ECCENTRICITY":0.00018846,"INCLINATION":87.8995,"RA_OF_ASC_NODE":299.0501,"ARG_OF_PERICENTER":83.9936,"MEAN_ANOMALY":276.1409,"EPHEMERIS_TYPE":0,"CLASSIFICATION_TYPE":"U","NORAD_CAT_ID":48781,"ELEMENT_SET_NO":999,"REV_AT_EPOCH":21836,"BSTAR":6.8457923e-5,"MEAN_MOTION_DOT":3.9e-7,"MEAN_MOTION_DDOT":0},{"OBJECT_NAME":"ONEWEB-0231","OBJECT_ID":"2021-045R","EPOCH":"2025-11-29T20:28:49.935072","MEAN_MOTION":13.15547994,"ECCENTRICITY":0.000216,"INCLINATION":87.8974,"RA_OF_ASC_NODE":298.9786,"ARG_OF_PERICENTER":83.0036,"MEAN_ANOMALY":277.134,"EPHEMERIS_TYPE":0,"CLASSIFICATION_TYPE":"U","NORAD_CAT_ID":48782,"ELEMENT_SET_NO":999,"REV_AT_EPOCH":21813,"BSTAR":-0.00016743,"MEAN_MOTION_DOT":-5.0e-7,"MEAN_MOTION_DDOT":0},{"OBJECT_NAME":"ONEWEB-0234","OBJECT_ID":"2021-045S","EPOCH":"2025-11-29T19:33:51.858720","MEAN_MOTION":13.15547456,"ECCENTRICITY":0.0001421,"INCLINATION":87.8979,"RA_OF_ASC_NODE":298.9589,"ARG_OF_PERICENTER":56.5763,"MEAN_ANOMALY":303.5503,"EPHEMERIS_TYPE":0,"CLASSIFICATION_TYPE":"U","NORAD_CAT_ID":48783,"ELEMENT_SET_NO":999,"REV_AT_EPOCH":21826,"BSTAR":0.00029462,"MEAN_MOTION_DOT":1.24e-6,"MEAN_MOTION_DDOT":0},{"OBJECT_NAME":"ONEWEB-0238","OBJECT_ID":"2021-045T","EPOCH":"2025-11-29T19:34:15.376800","MEAN_MOTION":13.15549543,"ECCENTRICITY":0.000163,"INCLINATION":87.8978,"RA_OF_ASC_NODE":298.9529,"ARG_OF_PERICENTER":74.3882,"MEAN_ANOMALY":285.7428,"EPHEMERIS_TYPE":0,"CLASSIFICATION_TYPE":"U","NORAD_CAT_ID":48784,"ELEMENT_SET_NO":999,"REV_AT_EPOCH":21816,"BSTAR":0.00033196,"MEAN_MOTION_DOT":1.38e-6,"MEAN_MOTION_DDOT":0},{"OBJECT_NAME":"ONEWEB-0240","OBJECT_ID":"2021-045U","EPOCH":"2025-11-29T20:04:52.716864","MEAN_MOTION":13.15549826,"ECCENTRICITY":0.0002109,"INCLINATION":87.8998,"RA_OF_ASC_NODE":298.9423,"ARG_OF_PERICENTER":74.1785,"MEAN_ANOMALY":285.9577,"EPHEMERIS_TYPE":0,"CLASSIFICATION_TYPE":"U","NORAD_CAT_ID":48785,"ELEMENT_SET_NO":999,"REV_AT_EPOCH":21819,"BSTAR":0.00027838,"MEAN_MOTION_DOT":1.18e-6,"MEAN_MOTION_DDOT":0},{"OBJECT_NAME":"ONEWEB-0246","OBJECT_ID":"2021-045V","EPOCH":"2025-11-29T19:56:53.201184","MEAN_MOTION":13.15549502,"ECCENTRICITY":0.0002018,"INCLINATION":87.8988,"RA_OF_ASC_NODE":298.9543,"ARG_OF_PERICENTER":85.9838,"MEAN_ANOMALY":274.1523,"EPHEMERIS_TYPE":0,"CLASSIFICATION_TYPE":"U","NORAD_CAT_ID":48786,"ELEMENT_SET_NO":999,"REV_AT_EPOCH":21806,"BSTAR":0.00049755,"MEAN_MOTION_DOT":2.0e-6,"MEAN_MOTION_DDOT":0},{"OBJECT_NAME":"ONEWEB-0210","OBJECT_ID":"2021-045W","EPOCH":"2025-11-29T06:33:43.380000","MEAN_MOTION":13.15548121,"ECCENTRICITY":0.00024888,"INCLINATION":87.8986,"RA_OF_ASC_NODE":299.0641,"ARG_OF_PERICENTER":89.8392,"MEAN_ANOMALY":270.3024,"EPHEMERIS_TYPE":0,"CLASSIFICATION_TYPE":"U","NORAD_CAT_ID":48787,"ELEMENT_SET_NO":999,"REV_AT_EPOCH":21803,"BSTAR":0.00037759663,"MEAN_MOTION_DOT":1.55e-6,"MEAN_MOTION_DDOT":0},{"OBJECT_NAME":"ONEWEB-0214","OBJECT_ID":"2021-045X","EPOCH":"2025-11-29T19:32:53.916288","MEAN_MOTION":13.15550455,"ECCENTRICITY":0.000219,"INCLINATION":87.8996,"RA_OF_ASC_NODE":298.9462,"ARG_OF_PERICENTER":91.8068,"MEAN_ANOMALY":268.3314,"EPHEMERIS_TYPE":0,"CLASSIFICATION_TYPE":"U","NORAD_CAT_ID":48788,"ELEMENT_SET_NO":999,"REV_AT_EPOCH":21807,"BSTAR":0.00034578,"MEAN_MOTION_DOT":1.43e-6,"MEAN_MOTION_DDOT":0},{"OBJECT_NAME":"ONEWEB-0221","OBJECT_ID":"2021-045Y","EPOCH":"2025-11-29T19:43:11.688384","MEAN_MOTION":13.15547538,"ECCENTRICITY":0.0002079,"INCLINATION":87.8984,"RA_OF_ASC_NODE":298.9614,"ARG_OF_PERICENTER":80.0643,"MEAN_ANOMALY":280.0722,"EPHEMERIS_TYPE":0,"CLASSIFICATION_TYPE":"U","NORAD_CAT_ID":48789,"ELEMENT_SET_NO":999,"REV_AT_EPOCH":21816,"BSTAR":0.00030206,"MEAN_MOTION_DOT":1.27e-6,"MEAN_MOTION_DDOT":0},{"OBJECT_NAME":"ONEWEB-0213","OBJECT_ID":"2021-045Z","EPOCH":"2025-11-29T19:27:13.674816","MEAN_MOTION":13.15549837,"ECCENTRICITY":0.0002163,"INCLINATION":87.8976,"RA_OF_ASC_NODE":298.9719,"ARG_OF_PERICENTER":83.4555,"MEAN_ANOMALY":276.6821,"EPHEMERIS_TYPE":0,"CLASSIFICATION_TYPE":"U","NORAD_CAT_ID":48790,"ELEMENT_SET_NO":999,"REV_AT_EPOCH":21822,"BSTAR":0.00033568,"MEAN_MOTION_DOT":1.39e-6,"MEAN_MOTION_DDOT":0}]
